[{"OBJECT_NAME":"FLOCK 4G-5","OBJECT_ID":"2025-009BG","EPOCH":"2026-03-09T10:57:11.608704","MEAN_MOTION":15.28679529,"ECCENTRICITY":0.00020946,"INCLINATION":97.4058,"RA_OF_ASC_NODE":151.2478,"ARG_OF_PERICENTER":314.5072,"MEAN_ANOMALY":45.5996,"EPHEMERIS_TYPE":0,"CLASSIFICATION_TYPE":"U","NORAD_CAT_ID":62663,"ELEMENT_SET_NO":999,"REV_AT_EPOCH":6369,"BSTAR":0.00040688068,"MEAN_MOTION_DOT":0.00011278,"MEAN_MOTION_DDOT":0},{"OBJECT_NAME":"STARLINK-34677","OBJECT_ID":"2025-161S","EPOCH":"2026-03-09T22:25:16.499136","MEAN_MOTION":15.30219127,"ECCENTRICITY":0.00026115,"INCLINATION":53.1603,"RA_OF_ASC_NODE":293.3259,"ARG_OF_PERICENTER":44.929,"MEAN_ANOMALY":315.1922,"EPHEMERIS_TYPE":0,"CLASSIFICATION_TYPE":"U","NORAD_CAT_ID":65031,"ELEMENT_SET_NO":999,"REV_AT_EPOCH":3426,"BSTAR":0.0014794379,"MEAN_MOTION_DOT":0.00043744,"MEAN_MOTION_DDOT":0}]
